NORAD_CAT_ID,OBJECT_NAME,OBJECT_TYPE,EPOCH,MEAN_MOTION,ECCENTRICITY,INCLINATION,RA_OF_ASC_NODE,ARG_OF_PERICENTER,MEAN_ANOMALY,BSTAR,MEAN_MOTION_DOT,MEAN_MOTION_DDOT,TLE_LINE0,TLE_LINE1,TLE_LINE2,SEMIMAJOR_AXIS,PERIOD,APOGEE,PERIGEE,DECAYED
54080.0,STARLINK-5160,PAYLOAD,2024-04-05 10:20:37,15.08837813,0.0001383,53.2158,256.3348,87.7107,272.4044,0.00050297,7.725e-05,0.0,0 STARLINK-5160,1 54080U 22136AF  24096.43098502  .00007725  00000-0  50297-3 0  9990,2 54080  53.2158 256.3348 0001383  87.7107 272.4044 15.08837813 81229,6917.887,95.438,540.709,538.795,0.0
54080.0,STARLINK-5160,PAYLOAD,2024-04-05 19:52:52,15.08959973,6.26e-05,53.2155,254.5511,112.0131,248.0928,0.0039436,0.00063246,0.0,0 STARLINK-5160,1 54080U 22136AF  24096.82839055  .00063246  00000-0  39436-2 0  9990,2 54080  53.2155 254.5511 0000626 112.0131 248.0928 15.08959973 81284,6917.514,95.43,539.812,538.946,0.0
54080.0,STARLINK-5160,PAYLOAD,2024-04-06 03:49:48,15.08924236,0.0001446,53.2169,253.0634,70.0704,290.0444,0.0020475,0.00032524,0.0,0 STARLINK-5160,1 54080U 22136AF  24097.15958796  .00032524  00000-0  20475-2 0  9999,2 54080  53.2169 253.0634 0001446  70.0704 290.0444 15.08924236 81339,6917.623,95.432,540.488,538.488,0.0
54080.0,STARLINK-5160,PAYLOAD,2024-04-06 21:19:04,15.08828838,0.0001441,53.2157,249.793,85.3436,274.7721,-0.0008869,-0.00014371,0.0,0 STARLINK-5160,1 54080U 22136AF  24097.88824227 -.00014371  00000-0 -88690-3 0  9996,2 54080  53.2157 249.7930 0001441  85.3436 274.7721 15.08828838 81443,6917.915,95.438,540.776,538.783,0.0
54080.0,STARLINK-5160,PAYLOAD,2024-04-07 10:02:10,15.08809248,0.0001903,53.2168,247.4129,82.4566,277.6642,0.00022283,3.257e-05,0.0,0 STARLINK-5160,1 54080U 22136AF  24098.41818191  .00003257  00000-0  22283-3 0  9994,2 54080  53.2168 247.4129 0001903  82.4566 277.6642 15.08809248 81522,6917.974,95.439,541.156,538.523,0.0
54080.0,STARLINK-5160,PAYLOAD,2024-04-07 19:34:30,15.08817153,0.0001823,53.2166,245.6316,94.5056,265.6144,0.00064202,9.938e-05,0.0,0 STARLINK-5160,1 54080U 22136AF  24098.81562949  .00009938  00000-0  64202-3 0  9994,2 54080  53.2166 245.6316 0001823  94.5056 265.6144 15.08817153 81109,6917.95,95.439,541.076,538.554,0.0
54080.0,STARLINK-5160,PAYLOAD,2024-04-08 09:52:59,15.08840655,0.0001578,53.2162,242.9538,80.9128,279.2043,0.0011978,0.00018827,0.0,0 STARLINK-5160,1 54080U 22136AF  24099.41179441  .00018827  00000-0  11978-2 0  9990,2 54080  53.2162 242.9538 0001578  80.9128 279.2043 15.08840655 81671,6917.878,95.438,540.835,538.652,0.0
54080.0,STARLINK-5160,PAYLOAD,2024-04-08 16:14:31,15.08853699,0.0001478,53.2167,241.7632,84.8443,275.2718,0.0013308,0.00020963,0.0,0 STARLINK-5160,1 54080U 22136AF  24099.67675239  .00020963  00000-0  13308-2 0  9997,2 54080  53.2167 241.7632 0001478  84.8443 275.2718 15.08853699 81239,6917.839,95.437,540.726,538.681,0.0
54080.0,STARLINK-5160,PAYLOAD,2024-04-09 09:43:45,15.08855969,0.0001066,53.2183,238.4937,70.3567,289.7541,0.00086008,0.00013433,0.0,0 STARLINK-5160,1 54080U 22136AF  24100.40539122  .00013433  00000-0  86008-3 0  9993,2 54080  53.2183 238.4937 0001066  70.3567 289.7541 15.08855969 81829,6917.832,95.437,540.434,538.959,0.0
54080.0,STARLINK-5160,PAYLOAD,2024-04-09 16:05:18,15.08856699,9.86e-05,53.2182,237.3021,66.1,294.0095,0.00072872,0.00011334,0.0,0 STARLINK-5160,1 54080U 22136AF  24100.67034905  .00011334  00000-0  72872-3 0  9993,2 54080  53.2182 237.3021 0000986  66.1000 294.0095 15.08856699 81380,6917.829,95.436,540.376,539.012,0.0
54080.0,STARLINK-5160,PAYLOAD,2024-04-10 01:37:36,15.08854759,8.33e-05,53.2136,235.5181,65.5744,294.5335,0.00042992,6.564e-05,0.0,0 STARLINK-5160,1 54080U 22136AF  24101.06778552  .00006564  00000-0  42992-3 0  9999,2 54080  53.2136 235.5181 0000833  65.5744 294.5335 15.08854759 81922,6917.835,95.437,540.277,539.124,0.0
54080.0,STARLINK-5160,PAYLOAD,2024-04-10 09:34:32,15.08844484,0.0001521,53.2155,234.0331,85.88,274.2366,9.88e-05,1.285e-05,0.0,0 STARLINK-5160,1 54080U 22136AF  24101.39898828  .00001285  00000-0  98800-4 0  9999,2 54080  53.2155 234.0331 0001521  85.8800 274.2366 15.08844484 81975,6917.867,95.437,540.784,538.679,0.0
54080.0,STARLINK-5160,PAYLOAD,2024-04-10 15:56:04,15.08850914,0.0001393,53.2167,232.8443,86.3221,273.793,0.00016334,2.313e-05,0.0,0 STARLINK-5160,1 54080U 22136AF  24101.66394493  .00002313  00000-0  16334-3 0  9992,2 54080  53.2167 232.8443 0001393  86.3221 273.7930 15.08850914 81536,6917.847,95.437,540.676,538.748,0.0
54080.0,STARLINK-5160,PAYLOAD,2024-04-11 12:36:06,15.08836963,0.0001829,53.2184,228.9783,76.8817,283.2379,-6.1971e-05,-1.274e-05,0.0,0 STARLINK-5160,1 54080U 22136AF  24102.52507116 -.00001274  00000-0 -61971-4 0  9991,2 54080  53.2184 228.9783 0001829  76.8817 283.2379 15.08836963 82146,6917.89,95.438,541.02,538.489,0.0
54080.0,STARLINK-5160,PAYLOAD,2024-04-11 14:11:29,15.08834305,0.0001632,53.2205,228.6821,79.335,280.7825,-0.00011379,-2.098e-05,0.0,0 STARLINK-5160,1 54080U 22136AF  24102.59131172 -.00002098  00000-0 -11379-3 0  9994,2 54080  53.2205 228.6821 0001632  79.3350 280.7825 15.08834305 81675,6917.898,95.438,540.892,538.634,0.0
54080.0,STARLINK-5160,PAYLOAD,2024-04-12 14:02:16,15.08840965,0.0001488,53.2174,224.2219,80.7401,279.3759,0.00027011,4.014e-05,0.0,0 STARLINK-5160,1 54080U 22136AF  24103.58491464  .00004014  00000-0  27011-3 0  9995,2 54080  53.2174 224.2219 0001488  80.7401 279.3759 15.08840965 81821,6917.877,95.437,540.772,538.713,0.0
54080.0,STARLINK-5160,PAYLOAD,2024-04-13 13:53:04,15.08836334,0.0001387,53.2159,219.7613,77.2369,282.8778,0.00015191,2.13e-05,0.0,0 STARLINK-5160,1 54080U 22136AF  24104.57852074  .00002130  00000-0  15191-3 0  9996,2 54080  53.2159 219.7613 0001387  77.2369 282.8778 15.08836334 82458,6917.892,95.438,540.716,538.797,0.0
54080.0,STARLINK-5160,PAYLOAD,2024-04-14 13:43:50,15.08852476,0.0001514,53.2167,215.2996,82.4359,277.6806,0.00034861,5.266e-05,0.0,0 STARLINK-5160,1 54080U 22136AF  24105.57211565  .00005266  00000-0  34861-3 0  9999,2 54080  53.2167 215.2996 0001514  82.4359 277.6806 15.08852476 82607,6917.842,95.437,540.755,538.66,0.0
54080.0,STARLINK-5160,PAYLOAD,2024-04-15 13:34:36,15.08876028,0.0001668,53.217,210.8405,79.8439,280.2742,0.00066145,0.00010265,0.0,0 STARLINK-5160,1 54080U 22136AF  24106.56569948  .00010265  00000-0  66145-3 0  9995,2 54080  53.2170 210.8405 0001668  79.8439 280.2742 15.08876028 82277,6917.77,95.435,540.789,538.481,0.0
54080.0,STARLINK-5160,PAYLOAD,2024-04-16 13:25:23,15.08847854,0.0001509,53.2175,206.3782,96.1641,263.9523,6.7627e-06,-1.8e-06,0.0,0 STARLINK-5160,1 54080U 22136AF  24107.55930125 -.00000180  00000-0  67627-5 0  9998,2 54080  53.2175 206.3782 0001509  96.1641 263.9523 15.08847854 82901,6917.856,95.437,540.765,538.677,0.0
54080.0,STARLINK-5160,PAYLOAD,2024-04-17 11:40:49,15.08821004,0.0001389,53.2161,202.2166,95.1913,264.9238,0.0001478,2.064e-05,0.0,0 STARLINK-5160,1 54080U 22136AF  24108.48667881  .00002064  00000-0  14780-3 0  9999,2 54080  53.2161 202.2166 0001389  95.1913 264.9238 15.08821004 83043,6917.938,95.439,540.764,538.843,0.0
54080.0,STARLINK-5160,PAYLOAD,2024-04-18 11:31:36,15.0883015,0.0001583,53.2169,197.7554,97.1861,262.9311,0.00037837,5.737e-05,0.0,0 STARLINK-5160,1 54080U 22136AF  24109.48028913  .00005737  00000-0  37837-3 0  9995,2 54080  53.2169 197.7554 0001583  97.1861 262.9311 15.08830150 82715,6917.91,95.438,540.871,538.68,0.0
54080.0,STARLINK-5160,PAYLOAD,2024-04-19 05:00:51,15.08841279,0.0001555,53.2167,194.4848,97.1414,262.9755,0.00039719,6.039e-05,0.0,0 STARLINK-5160,1 54080U 22136AF  24110.20892959  .00006039  00000-0  39719-3 0  9993,2 54080  53.2167 194.4848 0001555  97.1414 262.9755 15.08841279 83308,6917.876,95.437,540.817,538.666,0.0
54080.0,STARLINK-5160,PAYLOAD,2024-04-19 12:57:47,15.08856736,0.0001734,53.2172,192.9986,70.5552,289.5627,0.00077172,0.00012021,0.0,0 STARLINK-5160,1 54080U 22136AF  24110.54012797  .00012021  00000-0  77172-3 0  9997,2 54080  53.2172 192.9986 0001734  70.5552 289.5627 15.08856736 82875,6917.829,95.436,540.894,538.495,0.0
54080.0,STARLINK-5160,PAYLOAD,2024-04-20 12:48:33,15.08824743,0.0001502,53.217,188.5378,74.9649,285.1509,-0.00059424,-9.729e-05,0.0,0 STARLINK-5160,1 54080U 22136AF  24111.53372513 -.00009729  00000-0 -59424-3 0  9995,2 54080  53.2170 188.5378 0001502  74.9649 285.1509 15.08824743 83502,6917.927,95.439,540.831,538.753,0.0
54080.0,STARLINK-5160,PAYLOAD,2024-04-20 14:23:56,15.08819786,0.0001494,53.2174,188.2397,74.8525,285.2632,-0.00058969,-9.655e-05,0.0,0 STARLINK-5160,1 54080U 22136AF  24111.59996498 -.00009655  00000-0 -58969-3 0  9996,2 54080  53.2174 188.2397 0001494  74.8525 285.2632 15.08819786 83033,6917.942,95.439,540.841,538.774,0.0
54080.0,STARLINK-5160,PAYLOAD,2024-04-21 14:14:44,15.08860445,0.0002225,53.2182,183.7719,55.411,304.7092,0.0018278,0.00028938,0.0,0 STARLINK-5160,1 54080U 22136AF  24112.59357470  .00028938  00000-0  18278-2 0  9999,2 54080  53.2182 183.7719 0002225  55.4110 304.7092 15.08860445 83189,6917.818,95.436,541.222,538.144,0.0
54080.0,STARLINK-5160,PAYLOAD,2024-04-22 04:33:13,15.08845064,0.0001121,53.2165,181.104,74.0163,286.0953,0.0010513,0.00016485,0.0,0 STARLINK-5160,1 54080U 22136AF  24113.18973548  .00016485  00000-0  10513-2 0  9993,2 54080  53.2165 181.1040 0001121  74.0163 286.0953 15.08845064 83759,6917.865,95.437,540.505,538.954,0.0
54080.0,STARLINK-5160,PAYLOAD,2024-04-22 10:54:45,15.0885831,0.0001539,53.2169,179.9105,118.2714,241.8433,0.0017363,0.00027467,0.0,0 STARLINK-5160,1 54080U 22136AF  24113.45469188  .00027467  00000-0  17363-2 0  9995,2 54080  53.2169 179.9105 0001539 118.2714 241.8433 15.08858310 83318,6917.824,95.436,540.754,538.625,0.0
54080.0,STARLINK-5160,PAYLOAD,2024-04-22 14:05:31,15.08860854,0.0001462,53.2165,179.3171,103.6373,256.4782,0.0016204,0.0002561,0.0,0 STARLINK-5160,1 54080U 22136AF  24113.58717157  .00025610  00000-0  16204-2 0  9992,2 54080  53.2165 179.3171 0001462 103.6373 256.4782 15.08860854 83332,6917.817,95.436,540.693,538.67,0.0
